#dP2025  1 29  0  0  0.00000000      96 __u+U IGS20 FIT  IAC
## 2351 259200.00000000   900.00000000 60704 0.0000000000000
+   53   G01G02G03G04G05G06G07G08G09G10G11G12G13G14G15G16G17
+        G18G19G20G21G22G23G24G25G26G27G28G29G30G31G32R01R02
+        R03R04R05R06R07R08R09R11R12R14R15R16R17R18R19R20R21
+        R22R24  0  0  0  0  0  0  0  0  0  0  0  0  0  0  0
+          0  0  0  0  0  0  0  0  0  0  0  0  0  0  0  0  0
++         6  6  5  5  5  8  6  6  5  6  5  5  6  5  6  6  6
++         6  5  4  6  6  6  8  5  6  6  5  6  7  5  5  5  6
++         6  6  7  8  5  9  7  6  6  6  7  5  7  7  6  6  6
++         7  7  0  0  0  0  0  0  0  0  0  0  0  0  0  0  0
++         0  0  0  0  0  0  0  0  0  0  0  0  0  0  0  0  0
%c M  cc GPS ccc cccc cccc cccc cccc ccccc ccccc ccccc ccccc
%c cc cc ccc ccc cccc cccc cccc cccc ccccc ccccc ccccc ccccc
%f  0.0000000  0.000000000  0.00000000000  0.000000000000000
%f  0.0000000  0.000000000  0.00000000000  0.000000000000000
%i    0    0    0    0      0      0      0      0         0
%i    0    0    0    0      0      0      0      0         0
/* INFORMATION & ANALYSIS CENTER (IAC)      ULTRA-RAPID DATA
/* S/V CLOCKS ARE ALIGNED TO GNSS TIME                      
/* G:C1WC2W R:C1PC2P E:C1XC5X C:C2IC6I J:C1CC2S             
/* PCV:IGS20_2350 OL/AL:FES2004  NONE     YN ORB:CoN CLK:CoN
*  2025 01 29 18  0  0.00000000
PG01  14571.099495 -21116.746107  -6849.650117     85.579313
PG02  13780.819297 -22217.472084  -2737.547085   -255.911357
PG03   8137.152157 -13043.941212 -21805.765097    654.924205
PG04   2370.531614 -22921.503729 -13049.249500    519.414481
PG05 -21501.378069   6544.530377  14032.464133   -200.448450
PG06 -16171.311180  -2526.621933 -20878.106608   -152.407243
PG07    154.868095 -19831.953307  17993.740750    -13.401282
PG08   9589.055955 -14468.575659  19839.205510    470.553444
PG09  -5858.234894 -25411.273585  -4941.447023    547.604686
PG10  22892.365028  10600.111131   9066.883751   -297.195311
PG11 -21011.093324   8083.794830 -14007.031998   -749.942008
PG12 -11477.635059  12117.336865 -20944.747515   -567.265101
PG13 -14035.647493   5170.205430  21699.287692    694.956263
PG14 -20245.052327 -12941.374861  11628.706811    589.089046
PG15  -7183.104534  16284.432327  19152.856799    257.382420
PG16  24875.939716     96.599847   9557.116570    -65.808339
PG17 -12769.622159 -20907.821408  -9582.269296    451.203894
PG18    988.507746  18341.006137  19131.507086   -655.810317
PG19 -15576.102490 -12746.848941 -17686.749808    591.976816
PG20 -26360.687629   1403.066723   2321.235755    366.700594
PG21  17081.976311 -19191.054454   3978.121152    101.770022
PG22 -23876.985081 -10347.131359   4782.016117    -94.694731
PG23  10944.839549  14831.399474  19255.278727    413.460996
PG24 -14036.541811  22253.899890  -1737.604684   -458.433964
PG25   3106.721414  16056.727411 -21330.999802    495.940661
PG26  26478.816001   3778.228193  -1412.853652    -68.565482
PG27  15219.289562  -2048.665374  21391.168047    -32.344571
PG28  15443.166981   4418.360254 -21166.800473   -547.414553
PG29   3469.985541  25845.969944  -4727.730237   -542.640770
PG30 -10560.605958 -11911.699585  21401.635177   -228.142318
PG31  20079.218375  -3819.612901 -17397.288330   -216.754574
PG32  15803.509520  16569.138833 -13399.668816   -532.230949
PR01  17514.219273   8211.000712 -16616.956358    112.917969
PR02   8439.166507  -6576.127061 -23106.145371    -37.977849
PR03  -5534.867483 -18771.856801 -16271.714909    115.867810
PR04 -15584.157040 -20163.412082   -847.461301    274.788647
PR05 -17467.994579 -10886.761851  15064.895159    144.548722
PR06  15135.528520  20342.888536   2715.872059   -131.308579
PR07   5733.785260  18959.827368  16150.131117     99.787184
PR08  15849.507588  20002.784818    722.262097     -6.290094
PR09 -21240.526152   9568.634003 -10473.218512    234.939375
PR11  10839.973486   8476.013102 -21468.960666     -4.663121
PR12  24462.207108   -614.796369  -7211.311705     50.175923
PR14   6183.650320 -11845.856137  21727.606541     27.668230
PR15 -12643.765512  -7979.754131  20679.236063     71.704661
PR16 -24422.354424    639.288185   7397.687513     32.861912
PR17   6404.356811 -24022.195068  -5779.928311    161.725426
PR18  -2795.863699 -16485.882746 -19222.635154    184.396905
PR19 -10053.030506  -3015.548992 -23244.844866   -307.273648
PR20 -13808.669728  17421.728768 -12538.372115   -125.142599
PR21  -7312.518115  24010.487253   4489.661080   -172.313223
PR22   3547.410067  15723.111951  19804.576475    -58.276316
PR24  13092.023587 -18293.430627  12057.011904    -90.225877
*  2025 01 29 18 15  0.00000000
PG01  15184.344384 -21398.704318  -4087.209127     85.603677
PG02  14118.130359 -22230.584762    148.917321   -255.902930
PG03  10507.901885 -12601.281912 -21022.777423    654.930223
PG04   3078.604692 -21445.349551 -15238.293348    519.419745
PG05 -22966.913993   6207.690203  11704.576854   -200.449220
PG06 -14635.326850  -4422.291815 -21666.804984   -152.430596
PG07   1484.617422 -21178.641303  16220.238569    -13.401253
PG08  10626.833618 -12340.855952  20762.425610    470.559918
PG09  -5357.036650 -24847.079561  -7678.519099    547.617651
PG10  21746.715108  10546.300514  11623.902195   -297.209169
PG11 -19996.514974   6672.301169 -16081.462483   -749.940476
PG12 -13680.148863  11519.628547 -19915.943749   -567.266979
PG13 -14611.063706   2700.412726  21787.758655    694.957380
PG14 -18779.097369 -12909.813828  13889.114723    589.095350
PG15  -8482.666177  14305.365876  20161.178103    257.386414
PG16  25773.078757    540.071369   6942.006334    -65.800071
PG17 -12836.129954 -21935.389178  -6921.849590    451.187521
PG18   -460.126796  19862.797968  17544.704787   -655.808631
PG19 -15939.467159 -14595.846118 -15862.251746    591.980676
PG20 -26460.596145   1128.992281   -531.484039    366.700202
PG21  17026.287926 -18512.778802   6808.496636    101.770559
PG22 -23164.695758 -10443.745882   7535.042968    -94.696394
PG23   8700.114369  14608.926206  20511.578377    413.467716
PG24 -14333.028561  22045.931807   1087.564217   -458.429893
PG25    735.271476  15760.931416 -21744.800370    495.940105
PG26  26161.492188   4066.832901  -4158.247346    -68.579913
PG27  16101.276506    269.819447  20882.151429    -32.343955
PG28  13997.009385   6393.312472 -21662.289060   -547.422672
PG29   3045.979920  25247.088060  -7490.021302   -542.637936
PG30  -9009.263023 -13749.050257  20978.156809   -228.134488
PG31  18867.531396  -2192.284525 -18954.504803   -216.753495
PG32  16145.441581  17965.736179 -11042.945493   -532.224202
PR01  18892.407108   9531.135566 -14231.234690    112.918596
PR02  10301.732698  -4418.013456 -22869.314191    -37.976826
PR03  -4199.359945 -17080.353889 -18394.793649    115.867558
PR04 -15523.762685 -19810.720984  -4060.154826    274.790757
PR05 -18679.741704 -12086.360656  12468.298365    144.549351
PR06  14911.019388  19836.901988   5883.363813   -131.308233
PR07   4432.444505  17287.934358  18294.713238     99.788372
PR08  15795.932176  19680.395975   3925.534347     -6.289670
PR09 -22302.370477   9907.800302  -7553.722016    234.940894
PR11   8178.621627   8986.737445 -22420.174737     -4.665960
PR12  23384.753129   -520.779793 -10175.665526     50.175909
PR14   8721.134956 -12430.337377  20494.018829     27.668285
PR15 -10064.159573  -8452.617416  21873.231423     71.704639
PR16 -23321.239395    558.539880  10360.928262     32.861666
PR17   6399.680123 -24573.251147  -2605.568397    161.728090
PR18  -2140.099094 -18649.291927 -17223.593733    184.398739
PR19  -8992.607865  -5682.299211 -23180.141789   -307.274366
PR20 -13006.680602  15899.865979 -15141.267673   -125.143229
PR21  -7249.069801  24411.496628   1277.823632   -172.315846
PR22   2788.958336  17921.818073  17972.109148    -58.277700
PR24  12440.141079 -16777.496913  14671.722338    -90.227069
EOF
